[
    {
        "Altitude(m)": 570781.324527114,
        "Argument of Periapsis(deg)": 0.013245982221427002,
        "Eccentricity": 0.0,
        "Inclination(deg)": 53.0,
        "Latitude(deg)": -50.43254130012927,
        "Longitude(deg)": -101.66528120779718,
        "Mean Anomaly(deg)": 285.63778573515515,
        "RAAN(deg)": 64.98028673705603,
        "Satellite Name": "Starlink Shell 1 302",
        "Satellite Number": 302,
        "Semi-Major Axis(m)": 6931778.249405717,
        "Time(s)": 380
    },
    {
        "Altitude(m)": 570696.4070974545,
        "Argument of Periapsis(deg)": 0.013594560700938237,
        "Eccentricity": 0.0,
        "Inclination(deg)": 53.0,
        "Latitude(deg)": -50.21860037782956,
        "Longitude(deg)": -100.78945495695933,
        "Mean Anomaly(deg)": 286.2646169387119,
        "RAAN(deg)": 64.97976796697857,
        "Satellite Name": "Starlink Shell 1 302",
        "Satellite Number": 302,
        "Semi-Major Axis(m)": 6931778.249405717,
        "Time(s)": 390
    },
    {
        "Altitude(m)": 570608.4655815624,
        "Argument of Periapsis(deg)": 0.013943139180449475,
        "Eccentricity": 0.0,
        "Inclination(deg)": 53.0,
        "Latitude(deg)": -49.99747843377306,
        "Longitude(deg)": -99.92191539253392,
        "Mean Anomaly(deg)": 286.8914481422686,
        "RAAN(deg)": 64.9792491969011,
        "Satellite Name": "Starlink Shell 1 302",
        "Satellite Number": 302,
        "Semi-Major Axis(m)": 6931778.249405717,
        "Time(s)": 400
    },
    {
        "Altitude(m)": 570517.5349229045,
        "Argument of Periapsis(deg)": 0.014291717659960712,
        "Eccentricity": 0.0,
        "Inclination(deg)": 53.0,
        "Latitude(deg)": -49.76929529394498,
        "Longitude(deg)": -99.06278856003031,
        "Mean Anomaly(deg)": 287.5182793458253,
        "RAAN(deg)": 64.9787304268236,
        "Satellite Name": "Starlink Shell 1 302",
        "Satellite Number": 302,
        "Semi-Major Axis(m)": 6931778.249405717,
        "Time(s)": 410
    },
    {
        "Altitude(m)": 570423.6512413574,
        "Argument of Periapsis(deg)": 0.014640296139471948,
        "Eccentricity": 0.0,
        "Inclination(deg)": 53.0,
        "Latitude(deg)": -49.5341718938162,
        "Longitude(deg)": -98.21218601188576,
        "Mean Anomaly(deg)": 288.1451105493821,
        "RAAN(deg)": 64.97821165674615,
        "Satellite Name": "Starlink Shell 1 302",
        "Satellite Number": 302,
        "Semi-Major Axis(m)": 6931778.249405717,
        "Time(s)": 420
    },
    {
        "Altitude(m)": 570326.8518175107,
        "Argument of Periapsis(deg)": 0.014988874618983185,
        "Eccentricity": 0.0,
        "Inclination(deg)": 53.0,
        "Latitude(deg)": -49.29223004151865,
        "Longitude(deg)": -97.37020468156317,
        "Mean Anomaly(deg)": 288.7719417529388,
        "RAAN(deg)": 64.97769288666866,
        "Satellite Name": "Starlink Shell 1 302",
        "Satellite Number": 302,
        "Semi-Major Axis(m)": 6931778.249405717,
        "Time(s)": 430
    },
    {
        "Altitude(m)": 570227.1750764151,
        "Argument of Periapsis(deg)": 0.015337453098494424,
        "Eccentricity": 0.0,
        "Inclination(deg)": 53.0,
        "Latitude(deg)": -49.04359219050969,
        "Longitude(deg)": -96.53692679480888,
        "Mean Anomaly(deg)": 289.39877295649546,
        "RAAN(deg)": 64.97717411659119,
        "Satellite Name": "Starlink Shell 1 302",
        "Satellite Number": 302,
        "Semi-Major Axis(m)": 6931778.249405717,
        "Time(s)": 440
    },
    {
        "Altitude(m)": 570124.6605708619,
        "Argument of Periapsis(deg)": 0.01568603157800566,
        "Eccentricity": 0.0,
        "Inclination(deg)": 53.0,
        "Latitude(deg)": -48.78838122222212,
        "Longitude(deg)": -95.71242132596193,
        "Mean Anomaly(deg)": 290.0256041600522,
        "RAAN(deg)": 64.97665534651372,
        "Satellite Name": "Starlink Shell 1 302",
        "Satellite Number": 302,
        "Semi-Major Axis(m)": 6931778.249405717,
        "Time(s)": 450
    },
    {
        "Altitude(m)": 570019.3489641348,
        "Argument of Periapsis(deg)": 0.0160346100575169,
        "Eccentricity": 0.0,
        "Inclination(deg)": 53.0,
        "Latitude(deg)": -48.52672023909268,
        "Longitude(deg)": -94.89674396870643,
        "Mean Anomaly(deg)": 290.6524353636089,
        "RAAN(deg)": 64.97613657643625,
        "Satellite Name": "Starlink Shell 1 302",
        "Satellite Number": 302,
        "Semi-Major Axis(m)": 6931778.249405717,
        "Time(s)": 460
    },
    {
        "Altitude(m)": 569911.2820123062,
        "Argument of Periapsis(deg)": 0.016383188537028134,
        "Eccentricity": 0.0,
        "Inclination(deg)": 53.0,
        "Latitude(deg)": -48.25873236825963,
        "Longitude(deg)": -94.08993712946005,
        "Mean Anomaly(deg)": 291.2792665671656,
        "RAAN(deg)": 64.97561780635877,
        "Satellite Name": "Starlink Shell 1 302",
        "Satellite Number": 302,
        "Semi-Major Axis(m)": 6931778.249405717,
        "Time(s)": 470
    },
    {
        "Altitude(m)": 569800.5025459926,
        "Argument of Periapsis(deg)": 0.01673176701653937,
        "Eccentricity": 0.0,
        "Inclination(deg)": 53.0,
        "Latitude(deg)": -47.98454057612769,
        "Longitude(deg)": -93.29203145179396,
        "Mean Anomaly(deg)": 291.9060977707223,
        "RAAN(deg)": 64.9750990362813,
        "Satellite Name": "Starlink Shell 1 302",
        "Satellite Number": 302,
        "Semi-Major Axis(m)": 6931778.249405717,
        "Time(s)": 480
    },
    {
        "Altitude(m)": 569687.0544516867,
        "Argument of Periapsis(deg)": 0.017080345496050607,
        "Eccentricity": 0.0,
        "Inclination(deg)": 53.0,
        "Latitude(deg)": -47.704267493911736,
        "Longitude(deg)": -92.50304584188757,
        "Mean Anomaly(deg)": 292.53292897427906,
        "RAAN(deg)": 64.97458026620383,
        "Satellite Name": "Starlink Shell 1 302",
        "Satellite Number": 302,
        "Semi-Major Axis(m)": 6931778.249405717,
        "Time(s)": 490
    },
    {
        "Altitude(m)": 569570.9826525731,
        "Argument of Periapsis(deg)": 0.017428923975561842,
        "Eccentricity": 0.0,
        "Inclination(deg)": 53.0,
        "Latitude(deg)": -47.418035254190066,
        "Longitude(deg)": -91.7229875039031,
        "Mean Anomaly(deg)": 293.1597601778358,
        "RAAN(deg)": 64.97406149612635,
        "Satellite Name": "Starlink Shell 1 302",
        "Satellite Number": 302,
        "Semi-Major Axis(m)": 6931778.249405717,
        "Time(s)": 500
    },
    {
        "Altitude(m)": 569452.3330889147,
        "Argument of Periapsis(deg)": 0.01777750245507308,
        "Eccentricity": 0.0,
        "Inclination(deg)": 53.0,
        "Latitude(deg)": -47.12596533842394,
        "Longitude(deg)": -90.95185349443403,
        "Mean Anomaly(deg)": 293.78659138139244,
        "RAAN(deg)": 64.97354272604889,
        "Satellite Name": "Starlink Shell 1 302",
        "Satellite Number": 302,
        "Semi-Major Axis(m)": 6931778.249405717,
        "Time(s)": 510
    },
    {
        "Altitude(m)": 569331.1526979671,
        "Argument of Periapsis(deg)": 0.018126080934584315,
        "Eccentricity": 0.0,
        "Inclination(deg)": 53.0,
        "Latitude(deg)": -46.82817843533559,
        "Longitude(deg)": -90.18963076683649,
        "Mean Anomaly(deg)": 294.4134225849492,
        "RAAN(deg)": 64.97302395597141,
        "Satellite Name": "Starlink Shell 1 302",
        "Satellite Number": 302,
        "Semi-Major Axis(m)": 6931778.249405717,
        "Time(s)": 520
    },
    {
        "Altitude(m)": 569207.4893934298,
        "Argument of Periapsis(deg)": 0.018474659414095554,
        "Eccentricity": 0.0,
        "Inclination(deg)": 53.0,
        "Latitude(deg)": -46.52479430997832,
        "Longitude(deg)": -89.43629621516803,
        "Mean Anomaly(deg)": -64.9597462114941,
        "RAAN(deg)": 64.97250518589394,
        "Satellite Name": "Starlink Shell 1 302",
        "Satellite Number": 302,
        "Semi-Major Axis(m)": 6931778.249405717,
        "Time(s)": 530
    },
    {
        "Altitude(m)": 569081.3920445021,
        "Argument of Periapsis(deg)": 0.018823237893606792,
        "Eccentricity": 0.0,
        "Inclination(deg)": 53.0,
        "Latitude(deg)": -46.21593168327785,
        "Longitude(deg)": -88.69181822774425,
        "Mean Anomaly(deg)": -64.33291500793736,
        "RAAN(deg)": 64.97198641581647,
        "Satellite Name": "Starlink Shell 1 302",
        "Satellite Number": 302,
        "Semi-Major Axis(m)": 6931778.249405717,
        "Time(s)": 540
    },
    {
        "Altitude(m)": 568952.910454458,
        "Argument of Periapsis(deg)": 0.019171816373118027,
        "Eccentricity": 0.0,
        "Inclination(deg)": 53.0,
        "Latitude(deg)": -45.9017081217835,
        "Longitude(deg)": -87.95615672198701,
        "Mean Anomaly(deg)": -63.70608380438064,
        "RAAN(deg)": 64.971467645739,
        "Satellite Name": "Starlink Shell 1 302",
        "Satellite Number": 302,
        "Semi-Major Axis(m)": 6931778.249405717,
        "Time(s)": 550
    },
    {
        "Altitude(m)": 568822.0953388282,
        "Argument of Periapsis(deg)": 0.019520394852629266,
        "Eccentricity": 0.0,
        "Inclination(deg)": 53.0,
        "Latitude(deg)": -45.58223993732591,
        "Longitude(deg)": -87.22926317114081,
        "Mean Anomaly(deg)": -63.079252600823935,
        "RAAN(deg)": 64.97094887566152,
        "Satellite Name": "Starlink Shell 1 302",
        "Satellite Number": 302,
        "Semi-Major Axis(m)": 6931778.249405717,
        "Time(s)": 560
    }
]